{
  "norad_id": 54009,
  "name": "STARLINK-5099",
  "history": [
    {
      "epoch": "2026-03-28T12:55:11.757792",
      "apogee_km": 541.0047465509679,
      "perigee_km": 538.4894039012152,
      "latitude_deg": 47.641107304723015,
      "longitude_deg": -7.420269120018929,
      "semi_major_axis_km": 6917.884075226091,
      "eccentricity": 0.0001818,
      "inclination_deg": 53.2157,
      "raan_deg": 129.1104,
      "arg_perigee_deg": 61.0724,
      "mean_anomaly_deg": 299.0451,
      "mean_motion_rev_day": 15.08838794
    }
  ]
}